HELIOS 1B               
1 25977U 99064A   20344.57203652  .00000160  00000-0  27070-4 0  9998
2 25977  98.2988 145.7976 0002295 115.8981 244.2467 14.82516030401066
TERRA                   
1 25994U 99068A   20345.17568534  .00000108  00000-0  33896-4 0  9996
2 25994  98.1980  56.8689 0001122  96.4864 292.2757 14.57123099115902
SL-16 R/B               
1 26070U 00006B   20344.92108213 -.00000136  00000-0 -44835-4 0  9990
2 26070  70.9990 164.5279 0018113 222.9897 136.9812 14.15468308 77462
MTI                     
1 26102U 00014A   20344.67601649  .00010429  00000-0  14192-3 0  9994
2 26102  97.4811 235.5051 0005592 314.0448  46.0347 15.57751866151775
TITAN 4B R/B            
1 26474U 00047B   20344.35563321  .00000527  00000-0  56351-4 0  9993
2 26474  67.9937 314.2396 0055846 359.9421   0.1704 14.96041467105409
ENVISAT                 
1 27386U 02009A   20345.04972568  .00000059  00000-0  32942-4 0  9990
2 27386  98.1403 342.8923 0001329  88.4376 338.9126 14.38003718983855
IDEFIX & ARIANE 42P R/B 
1 27422U 02021B   20344.88756231  .00000034  00000-0  29767-4 0  9997
2 27422  98.3769 298.8950 0013359  73.8515 286.4137 14.29302058970227
AQUA                    
1 27424U 02022A   20345.13290722  .00000180  00000-0  49930-4 0  9993
2 27424  98.2099 283.1697 0001933 123.2776 298.3397 14.57115105989500
CZ-4B R/B               
1 27432U 02024C   20344.88315420 -.00000005  00000-0  21197-4 0  9990
2 27432  99.0902 350.0754 0051078  42.3641  18.6245 14.14101063958441
MIDORI II (ADEOS-II)    
1 27597U 02056A   20344.84323332  .00000074  00000-0  47551-4 0  9991
2 27597  98.5423 288.1877 0001138 132.6563 227.4714 14.27473846936835
H-2A R/B                
1 27601U 02056E   20344.71063260  .00000114  00000-0  55627-4 0  9992
2 27601  98.2084  11.3064 0073242 115.2270 355.5756 14.31989748939775
CZ-4B R/B               
1 28059U 03049C   20344.90289226  .00000065  00000-0  27508-4 0  9998
2 28059  98.4882 263.3900 0049450 323.3770  36.4048 14.52625113908300
CZ-2C R/B               
1 28222U 04012C   20344.93627159  .00001053  00000-0  66183-4 0  9995
2 28222  97.7021 308.1995 0047702 148.0330 277.7828 15.10597933912486
SL-16 R/B               
1 28353U 04021B   20344.90206605  .00000244  00000-0  15265-3 0  9991
2 28353  71.0005 291.3552 0003157  57.5649 302.5778 14.14235624851946
CZ-4B R/B               
1 28415U 04035C   20344.67278930  .00000895  00000-0  62192-4 0  9993
2 28415  97.5921  24.1205 0052848 114.3465 246.3293 15.06974076890023
CZ-2C R/B               
1 28480U 04046B   20344.66452837  .00000003  00000-0  15748-4 0  9992
2 28480  98.0622   5.8797 0143026  66.4264  41.2150 14.25735884835388
ARIANE 5 R/B            
1 28499U 04049H   20344.89459736  .00000138  00000-0  24244-4 0  9995
2 28499  98.0629  87.3073 0093346  66.6640  72.1030 14.80071983862043
CZ-2D R/B               
1 28738U 05024B   20344.87738358  .00000962  00000-0  59285-4 0  9991
2 28738  97.3719   1.5398 0010428 302.0657  57.9560 15.12197132847913
SUZAKU (ASTRO-EII)      
1 28773U 05025A   20344.35976907  .00001994  00000-0  91559-4 0  9994
2 28773  31.3828 319.1350 0004589 170.2087 189.8650 15.17914078850550
ALOS (DAICHI)           
1 28931U 06002A   20345.08211234  .00000229  00000-0  53618-4 0  9996
2 28931  97.8646 322.3836 0000400  60.3541 299.7691 14.62772048793378
H-2A R/B                
1 28932U 06002B   20344.66954654  .00000628  00000-0  63182-4 0  9990
2 28932  98.3306 344.6829 0089730 108.1665  24.2759 14.92370869807277
AKARI (ASTRO-F)         
1 28939U 06005A   20344.90068246  .00006336  00000-0  16296-3 0  9995
2 28939  98.2474 339.4640 0092330  70.3561 290.7616 15.35367560807800
RESURS-DK 1             
1 29228U 06021A   20344.76432225  .00000351  00000-0  33644-4 0  9999
2 29228  69.9354 101.6880 0006186 223.0599 137.0079 15.02610995799084
GENESIS 1               
1 29252U 06029A   20344.82212883  .00001151  00000-0  65477-4 0  9995
2 29252  64.5229  87.9213 0019851 358.7958   1.3113 15.18364003794728
CZ-4B R/B               
1 29507U 06046C   20345.06310016  .00000520  00000-0  45298-4 0  9999
2 29507  97.7193   6.1660 0046337 297.1352  62.5150 15.00592836771757
CZ-2C R/B               
1 31114U 07010B   20344.62854117  .00000038  00000-0  35805-4 0  9991
2 31114  98.2399 185.5725 0060739 115.9823 244.7628 14.19340105707857
COSMO-SKYMED 1          
1 31598U 07023A   20345.07269652  .00000138  00000-0  23896-4 0  9993
2 31598  97.8829 165.6888 0001396  91.8687 268.2686 14.82157600730845
GENESIS 2               
1 31789U 07028A   20344.87626236  .00001472  00000-0  82444-4 0  9998
2 31789  64.5018 129.7009 0032723 225.3592 134.4862 15.17483560741793
COSMOS 2428             
1 31792U 07029A   20345.07789691 -.00000189  00000-0 -76316-4 0  9998
2 31792  70.8948 264.0052 0007985 188.7441 171.3542 14.12246936693662
SL-16 R/B               
1 31793U 07029B   20344.87622535 -.00000197  00000-0 -78102-4 0  9993
2 31793  70.9767 237.8596 0002591 282.2276 147.3553 14.14442548694461
KORONAS-FOTON           
1 33504U 09003A   20344.71217078  .00000865  00000-0  43430-4 0  9990
2 33504  82.4434  48.4268 0019893  36.7973 323.4620 15.15804663653934
H-2A R/B                
1 38341U 12025E   20344.47770241  .00000358  00000-0  49256-4 0  9990
2 38341  98.5164 151.0575 0056037  30.8025 329.6455 14.84126991463324
CUSAT 2 & FALCON 9 R/B  
1 39271U 13055G   20344.79085899  .00009412  00000-0  22352-3 0  9997
2 39271  80.9664  78.1500 0579591   2.3026 358.0620 14.50222802376126
SL-4 R/B                
1 39679U 14021B   20344.57458905  .00000957  00000-0  63607-4 0  9995
2 39679  51.6173  14.6186 0171151 192.5124 167.1571 15.06670579365429
ALOS-2                  
1 39766U 14029A   20345.08603902 -.00000008  00000-0  57662-5 0  9999
2 39766  97.9227  79.1738 0001377  87.8972 272.2387 14.79470244353669
CZ-2C R/B               
1 40306U 14071B   20344.83723329  .00006603  00000-0  13521-3 0  9996
2 40306  97.3462 293.2057 0012968 243.3179 116.6743 15.46355097340931
SL-27 R/B               
1 40354U 14084B   20344.88956788  .00001798  00000-0  44449-4 0  9999
2 40354  74.7382  25.0706 0035749 126.6464 233.8044 15.40608124335147
YAOGAN 29               
1 41038U 15069A   20345.03140302  .00000083  00000-0  17833-4 0  9991
2 41038  98.0251 332.8538 0002246  67.0705 293.0745 14.80474776272250
ASTRO-H (HITOMI)        
1 41337U 16012A   20344.42838436  .00000500  00000-0  33623-4 0  9995
2 41337  31.0067 340.2998 0012329   0.1478 359.9159 14.98753925263778
HXMT (HUIYAN)           
1 42758U 17034A   20344.95864016  .00000475  00000-0  43192-4 0  9992
2 42758  43.0164 153.0993 0009695  42.8591  92.7379 15.08989502192381
CZ-2C R/B               
1 43521U 18054D   20344.89428618  .00001143  00000-0  63274-4 0  9997
2 43521  35.1522 178.6124 0082977 225.8271 133.5600 15.11232111135706
AEOLUS                  
1 43600U 18066A   20344.29453178  .00016070  00000-0  63209-4 0  9994
2 43600  96.7184 348.0605 0004198  86.7960 273.3793 15.86956413133092
SAOCOM 1A               
1 43641U 18076A   20345.08103420  .00000069  00000-0  15202-4 0  9991
2 43641  97.8859 168.7000 0001411  80.5992 279.5385 14.82161370117616
CREW DRAGON DEMO-1 DEB  
1 44064U 19011B   20344.66942287  .00042161  00000-0  32149-3 0  9993
2 44064  51.6304 141.3573 0002038 339.2261  20.8654 15.71784284100397
CZ-2F R/B               
1 46390U 20063B   20345.09223484  .00045898  00000-0  21448-3 0  9995
2 46390  50.2028 269.6057 0011138   5.7266 354.3842 15.82666278 15305
2020-063G               
1 46395U 20063G   20344.93360667  .00020544  00000-0  11331-3 0  9998
2 46395  50.2054 271.6570 0009859 355.4875   4.6016 15.79548564 15255
